NORAD_CAT_ID,OBJECT_NAME,OBJECT_TYPE,EPOCH,MEAN_MOTION,ECCENTRICITY,INCLINATION,RA_OF_ASC_NODE,ARG_OF_PERICENTER,MEAN_ANOMALY,BSTAR,MEAN_MOTION_DOT,MEAN_MOTION_DDOT,TLE_LINE0,TLE_LINE1,TLE_LINE2,SEMIMAJOR_AXIS,PERIOD,APOGEE,PERIGEE,DECAYED
52304.0,STARLINK-3744,PAYLOAD,2023-12-30 14:18:37,15.08839278,0.000146,53.2171,80.8811,72.991,287.1242,-6.5325e-05,-1.327e-05,0.0,0 STARLINK-3744,1 52304U 22041AV  23364.59626313 -.00001327  00000-0 -65325-4 0  9996,2 52304  53.2171  80.8811 0001460  72.9910 287.1242 15.08839278 93852,6917.883,95.438,540.758,538.738,0.0
52304.0,STARLINK-3744,PAYLOAD,2023-12-31 12:34:01,15.08838514,0.0001409,53.2173,76.7152,75.1867,284.9281,-0.00024671,-4.212e-05,0.0,0 STARLINK-3744,1 52304U 22041AV  23365.52362760 -.00004212  00000-0 -24671-3 0  9997,2 52304  53.2173  76.7152 0001409  75.1867 284.9281 15.08838514 93990,6917.885,95.438,540.725,538.775,0.0
52304.0,STARLINK-3744,PAYLOAD,2024-01-01 10:49:24,15.08827241,0.0001669,53.2168,72.5527,76.9482,283.1696,0.00025012,3.694e-05,0.0,0 STARLINK-3744,1 52304U 22041AV  24001.45098369  .00003694  00000-0  25012-3 0  9999,2 52304  53.2168  72.5527 0001669  76.9482 283.1696 15.08827241 95352,6917.919,95.438,540.939,538.63,0.0
52304.0,STARLINK-3744,PAYLOAD,2024-01-01 14:00:11,15.08830034,0.0001754,53.218,71.9509,78.9052,281.2138,0.000304,4.552e-05,0.0,0 STARLINK-3744,1 52304U 22041AV  24001.58346254  .00004552  00000-0  30400-3 0  9993,2 52304  53.2180  71.9509 0001754  78.9052 281.2138 15.08830034 94150,6917.911,95.438,540.989,538.562,0.0
52304.0,STARLINK-3744,PAYLOAD,2024-01-02 13:50:58,15.08844603,0.0001783,53.2168,67.4903,76.5915,283.5276,0.00032701,4.921e-05,0.0,0 STARLINK-3744,1 52304U 22041AV  24002.57706560  .00004921  00000-0  32701-3 0  9999,2 52304  53.2168  67.4903 0001783  76.5915 283.5276 15.08844603 94300,6917.866,95.437,540.965,538.498,0.0
52304.0,STARLINK-3744,PAYLOAD,2024-01-03 04:09:26,15.08832287,9.15e-05,53.2175,64.8203,96.8601,263.2495,-8.1212e-05,-1.58e-05,0.0,0 STARLINK-3744,1 52304U 22041AV  24003.17322869 -.00001580  00000-0 -81212-4 0  9994,2 52304  53.2175  64.8203 0000915  96.8601 263.2495 15.08832287 95613,6917.904,95.438,540.402,539.136,0.0
52304.0,STARLINK-3744,PAYLOAD,2024-01-03 10:30:59,15.08838099,0.0001687,53.2165,63.633,108.6116,251.5059,1.3458e-05,-7.4e-07,0.0,0 STARLINK-3744,1 52304U 22041AV  24003.43818758 -.00000074  00000-0  13458-4 0  9993,2 52304  53.2165  63.6330 0001687 108.6116 251.5059 15.08838099 94432,6917.886,95.438,540.918,538.584,0.0
52304.0,STARLINK-3744,PAYLOAD,2024-01-04 08:46:23,15.08841493,0.0001563,53.2168,59.4716,87.7222,272.3949,1.7112e-06,-2.61e-06,0.0,0 STARLINK-3744,1 52304U 22041AV  24004.36554819 -.00000261  00000-0  17112-5 0  9991,2 52304  53.2168  59.4716 0001563  87.7222 272.3949 15.08841493 94570,6917.876,95.437,540.822,538.66,0.0
52304.0,STARLINK-3744,PAYLOAD,2024-01-05 03:51:01,15.08832288,0.0001581,53.2174,55.9025,93.5001,266.6172,0.00011043,1.47e-05,0.0,0 STARLINK-3744,1 52304U 22041AV  24005.16043366  .00001470  00000-0  11043-3 0  9997,2 52304  53.2174  55.9025 0001581  93.5001 266.6172 15.08832288 95916,6917.904,95.438,540.863,538.675,0.0
52304.0,STARLINK-3744,PAYLOAD,2024-01-05 08:37:10,15.08833907,0.0001557,53.2174,55.0102,95.3769,264.7401,0.00011783,1.587e-05,0.0,0 STARLINK-3744,1 52304U 22041AV  24005.35915357  .00001587  00000-0  11783-3 0  9996,2 52304  53.2174  55.0102 0001557  95.3769 264.7401 15.08833907 94728,6917.899,95.438,540.841,538.687,0.0
52304.0,STARLINK-3744,PAYLOAD,2024-01-06 11:38:43,15.08845043,0.000147,53.2172,49.9542,94.0159,266.1001,0.00012594,1.717e-05,0.0,0 STARLINK-3744,1 52304U 22041AV  24006.48522787  .00001717  00000-0  12594-3 0  9998,2 52304  53.2172  49.9542 0001470  94.0159 266.1001 15.08845043 96110,6917.865,95.437,540.747,538.713,0.0
52304.0,STARLINK-3744,PAYLOAD,2024-01-06 22:46:26,15.08834252,0.0001503,53.2179,47.874,95.0757,265.0407,0.00014554,2.029e-05,0.0,0 STARLINK-3744,1 52304U 22041AV  24006.94891379  .00002029  00000-0  14554-3 0  9990,2 52304  53.2179  47.8740 0001503  95.0757 265.0407 15.08834252 96181,6917.898,95.438,540.803,538.723,0.0
52304.0,STARLINK-3744,PAYLOAD,2024-01-07 11:29:31,15.08840072,0.00015,53.2179,45.4926,101.1435,258.9726,7.0307e-05,8.31e-06,0.0,0 STARLINK-3744,1 52304U 22041AV  24007.47883259  .00000831  00000-0  70307-4 0  9995,2 52304  53.2179  45.4926 0001500 101.1435 258.9726 15.08840072 95046,6917.88,95.438,540.783,538.707,0.0
52304.0,STARLINK-3744,PAYLOAD,2024-01-08 01:47:59,15.08839065,0.0001795,53.2173,42.8143,124.0931,236.0231,5.2725e-05,5.51e-06,0.0,0 STARLINK-3744,1 52304U 22041AV  24008.07499266  .00000551  00000-0  52725-4 0  9996,2 52304  53.2173  42.8143 0001795 124.0931 236.0231 15.08839065 96356,6917.883,95.438,540.99,538.506,0.0
52304.0,STARLINK-3744,PAYLOAD,2024-01-08 09:44:54,15.08845801,0.0001689,53.2176,41.3286,117.6292,242.4872,0.00010424,1.372e-05,0.0,0 STARLINK-3744,1 52304U 22041AV  24008.40618754  .00001372  00000-0  10424-3 0  9999,2 52304  53.2176  41.3286 0001689 117.6292 242.4872 15.08845801 95188,6917.863,95.437,540.896,538.559,0.0
52304.0,STARLINK-3744,PAYLOAD,2024-01-09 01:38:46,15.08835487,0.0001463,53.2174,38.3555,94.8543,265.2616,5.6286e-05,6.08e-06,0.0,0 STARLINK-3744,1 52304U 22041AV  24009.06859652  .00000608  00000-0  56286-4 0  9994,2 52304  53.2174  38.3555 0001463  94.8543 265.2616 15.08835487 96501,6917.894,95.438,540.771,538.747,0.0
52304.0,STARLINK-3744,PAYLOAD,2024-01-09 08:00:19,15.08838933,0.000148,53.2174,37.1664,91.5182,268.5979,8.0265e-05,9.9e-06,0.0,0 STARLINK-3744,1 52304U 22041AV  24009.33355447  .00000990  00000-0  80265-4 0  9995,2 52304  53.2174  37.1664 0001480  91.5182 268.5979 15.08838933 95327,6917.884,95.438,540.772,538.725,0.0
52304.0,STARLINK-3744,PAYLOAD,2024-01-10 01:29:33,15.08845683,0.0001489,53.2173,33.895,89.3855,270.7307,8.3838e-05,1.047e-05,0.0,0 STARLINK-3744,1 52304U 22041AV  24010.06219006  .00001047  00000-0  83838-4 0  9990,2 52304  53.2173  33.8950 0001489  89.3855 270.7307 15.08845683 96655,6917.863,95.437,540.758,538.698,0.0
52304.0,STARLINK-3744,PAYLOAD,2024-01-10 07:51:05,15.08850694,0.0001556,53.2168,32.7057,85.5635,274.5535,0.00012799,1.75e-05,0.0,0 STARLINK-3744,1 52304U 22041AV  24010.32714519  .00001750  00000-0  12799-3 0  9996,2 52304  53.2168  32.7057 0001556  85.5635 274.5535 15.08850694 95476,6917.848,95.437,540.789,538.636,0.0
52304.0,STARLINK-3744,PAYLOAD,2024-01-10 22:09:34,15.08836417,0.0001716,53.2172,30.0295,107.489,252.6289,6.1165e-05,6.85e-06,0.0,0 STARLINK-3744,1 52304U 22041AV  24010.92331479  .00000685  00000-0  61165-4 0  9990,2 52304  53.2172  30.0295 0001716 107.4890 252.6289 15.08836417 96786,6917.891,95.438,540.943,538.569,0.0
52304.0,STARLINK-3744,PAYLOAD,2024-01-11 07:41:53,15.08838395,0.000148,53.2173,28.2457,98.8385,261.2775,7.5687e-05,9.17e-06,0.0,0 STARLINK-3744,1 52304U 22041AV  24011.32075459  .00000917  00000-0  75687-4 0  9990,2 52304  53.2173  28.2457 0001480  98.8385 261.2775 15.08838395 95621,6917.885,95.438,540.774,538.726,0.0
52304.0,STARLINK-3744,PAYLOAD,2024-01-12 04:21:54,15.08840956,0.0001516,53.2167,24.3805,90.2384,269.8782,6.6903e-07,-2.77e-06,0.0,0 STARLINK-3744,1 52304U 22041AV  24012.18187614 -.00000277  00000-0  66903-6 0  9995,2 52304  53.2167  24.3805 0001516  90.2384 269.8782 15.08840956 96970,6917.877,95.437,540.791,538.694,0.0
52304.0,STARLINK-3744,PAYLOAD,2024-01-12 10:43:26,15.08849691,0.0001636,53.2163,23.1892,91.0971,269.0209,-6.082e-06,-3.85e-06,0.0,0 STARLINK-3744,1 52304U 22041AV  24012.44683042 -.00000385  00000-0 -60820-5 0  9992,2 52304  53.2163  23.1892 0001636  91.0971 269.0209 15.08849691 97010,6917.851,95.437,540.848,538.584,0.0
52304.0,STARLINK-3744,PAYLOAD,2024-01-13 04:12:41,15.08836314,0.0001487,53.2165,19.9184,99.9841,260.1318,7.7194e-05,9.41e-06,0.0,0 STARLINK-3744,1 52304U 22041AV  24013.17547976  .00000941  00000-0  77194-4 0  9995,2 52304  53.2165  19.9184 0001487  99.9841 260.1318 15.08836314 97129,6917.892,95.438,540.785,538.728,0.0
52304.0,STARLINK-3744,PAYLOAD,2024-01-13 05:48:04,15.08838211,0.0001477,53.2164,19.6213,95.2253,264.8908,9.4788e-05,1.221e-05,0.0,0 STARLINK-3744,1 52304U 22041AV  24013.24171902  .00001221  00000-0  94788-4 0  9995,2 52304  53.2164  19.6213 0001477  95.2253 264.8908 15.08838211 95912,6917.886,95.438,540.773,538.729,0.0
52304.0,STARLINK-3744,PAYLOAD,2024-01-14 05:38:51,15.08838058,0.0001374,53.2169,15.1609,80.745,279.3698,8.1003e-05,1.001e-05,0.0,0 STARLINK-3744,1 52304U 22041AV  24014.23532345  .00001001  00000-0  81003-4 0  9999,2 52304  53.2169  15.1609 0001374  80.7450 279.3698 15.08838058 97289,6917.886,95.438,540.702,538.801,0.0
52304.0,STARLINK-3744,PAYLOAD,2024-01-15 08:40:24,15.08853822,0.000134,53.2165,10.107,98.4824,261.632,0.0002333,3.428e-05,0.0,0 STARLINK-3744,1 52304U 22041AV  24015.36139315  .00003428  00000-0  23330-3 0  9997,2 52304  53.2165  10.1070 0001340  98.4824 261.6320 15.08853822 97457,6917.838,95.437,540.63,538.776,0.0
52304.0,STARLINK-3744,PAYLOAD,2024-01-16 08:31:12,15.08838029,0.0001804,53.2176,5.6446,93.6657,266.4542,9.0921e-05,1.159e-05,0.0,0 STARLINK-3744,1 52304U 22041AV  24016.35500763  .00001159  00000-0  90921-4 0  9996,2 52304  53.2176   5.6446 0001804  93.6657 266.4542 15.08838029 97609,6917.886,95.438,540.999,538.503,0.0
52304.0,STARLINK-3744,PAYLOAD,2024-01-17 03:35:49,15.08849026,0.0001365,53.2177,2.0695,94.5784,265.5364,9.5638e-05,1.235e-05,0.0,0 STARLINK-3744,1 52304U 22041AV  24017.14987744  .00001235  00000-0  95638-4 0  9997,2 52304  53.2177   2.0695 0001365  94.5784 265.5364 15.08849026 97724,6917.853,95.437,540.662,538.774,0.0
52304.0,STARLINK-3744,PAYLOAD,2024-01-17 05:11:12,15.08852245,0.0001506,53.2177,1.7741,91.6315,268.4849,0.00016764,2.382e-05,0.0,0 STARLINK-3744,1 52304U 22041AV  24017.21611670  .00002382  00000-0  16764-3 0  9993,2 52304  53.2177   1.7741 0001506  91.6315 268.4849 15.08852245 96510,6917.843,95.437,540.75,538.666,0.0
